{
  "type": "FeatureCollection",
  "features": [
    {
      "type": "Feature",
      "properties": {
        "norad_id": 37867,
        "name": "COSMOS 2476 (744)",
        "group": "glo-ops",
        "lat": 63.8982854325422,
        "lon": 149.52729647588643,
        "alt_km": 19178.168451549063,
        "timestamp": "2025-12-21T16:47:54.999199+00:00",
        "meta_object_name": "COSMOS 2476 (744)",
        "meta_object_id": "2011-064A",
        "meta_epoch": "2025-12-19T06:05:26.552256",
        "meta_mean_motion": 2.13103916,
        "meta_eccentricity": 0.0024321,
        "meta_inclination": 65.1662,
        "meta_ra_of_asc_node": 78.9509,
        "meta_arg_of_pericenter": 234.6548,
        "meta_mean_anomaly": 130.4776,
        "meta_ephemeris_type": 0,
        "meta_classification_type": "U",
        "meta_norad_cat_id": 37867,
        "meta_element_set_no": 999,
        "meta_rev_at_epoch": 10993,
        "meta_bstar": 0,
        "meta_mean_motion_dot": -3e-07,
        "meta_mean_motion_ddot": 0,
        "tle_line1": "1 37867U 11064A   25353.25377954 -.00000030  00000+0  00000+0 0  9995",
        "tle_line2": "2 37867  65.1662  78.9509 0024321 234.6548 130.4776  2.13103916109937"
      },
      "geometry": {
        "type": "Point",
        "coordinates": [
          149.52729647588643,
          63.8982854325422
        ]
      }
    },
    {
      "type": "Feature",
      "properties": {
        "norad_id": 37868,
        "name": "COSMOS 2477 (745)",
        "group": "glo-ops",
        "lat": -64.22730874275072,
        "lon": -27.881812027184676,
        "alt_km": 19087.67550336044,
        "timestamp": "2025-12-21T16:47:54.999210+00:00",
        "meta_object_name": "COSMOS 2477 (745)",
        "meta_object_id": "2011-064B",
        "meta_epoch": "2025-12-21T10:11:05.859168",
        "meta_mean_motion": 2.13103052,
        "meta_eccentricity": 0.0021519,
        "meta_inclination": 65.1732,
        "meta_ra_of_asc_node": 78.9552,
        "meta_arg_of_pericenter": 235.2861,
        "meta_mean_anomaly": 175.9616,
        "meta_ephemeris_type": 0,
        "meta_classification_type": "U",
        "meta_norad_cat_id": 37868,
        "meta_element_set_no": 999,
        "meta_rev_at_epoch": 10997,
        "meta_bstar": 0,
        "meta_mean_motion_dot": -9e-08,
        "meta_mean_motion_ddot": 0,
        "tle_line1": "1 37868U 11064B   25355.42437337 -.00000009  00000+0  00000+0 0  9995",
        "tle_line2": "2 37868  65.1732  78.9552 0021519 235.2861 175.9616  2.13103052109977"
      },
      "geometry": {
        "type": "Point",
        "coordinates": [
          -27.881812027184676,
          -64.22730874275072
        ]
      }
    },
    {
      "type": "Feature",
      "properties": {
        "norad_id": 37869,
        "name": "COSMOS 2475 (743)",
        "group": "glo-ops",
        "lat": -34.34123091696585,
        "lon": -82.62177139358006,
        "alt_km": 19075.940546864153,
        "timestamp": "2025-12-21T16:47:54.999247+00:00",
        "meta_object_name": "COSMOS 2475 (743)",
        "meta_object_id": "2011-064C",
        "meta_epoch": "2025-12-21T11:20:32.913888",
        "meta_mean_motion": 2.13101692,
        "meta_eccentricity": 0.002659,
        "meta_inclination": 65.1803,
        "meta_ra_of_asc_node": 78.9738,
        "meta_arg_of_pericenter": 248.9867,
        "meta_mean_anomaly": 155.1664,
        "meta_ephemeris_type": 0,
        "meta_classification_type": "U",
        "meta_norad_cat_id": 37869,
        "meta_element_set_no": 999,
        "meta_rev_at_epoch": 10998,
        "meta_bstar": 0,
        "meta_mean_motion_dot": -9e-08,
        "meta_mean_motion_ddot": 0,
        "tle_line1": "1 37869U 11064C   25355.47260317 -.00000009  00000+0  00000+0 0  9993",
        "tle_line2": "2 37869  65.1803  78.9738 0026590 248.9867 155.1664  2.13101692109986"
      },
      "geometry": {
        "type": "Point",
        "coordinates": [
          -82.62177139358006,
          -34.34123091696585
        ]
      }
    },
    {
      "type": "Feature",
      "properties": {
        "norad_id": 39155,
        "name": "COSMOS 2485 (747)",
        "group": "glo-ops",
        "lat": 44.299647340592685,
        "lon": -127.0339057893851,
        "alt_km": 19136.014993430796,
        "timestamp": "2025-12-21T16:47:54.999274+00:00",
        "meta_object_name": "COSMOS 2485 (747)",
        "meta_object_id": "2013-019A",
        "meta_epoch": "2025-12-20T02:56:15.241632",
        "meta_mean_motion": 2.1310322,
        "meta_eccentricity": 0.0024876,
        "meta_inclination": 65.3174,
        "meta_ra_of_asc_node": 79.6189,
        "meta_arg_of_pericenter": 230.2075,
        "meta_mean_anomaly": 129.6042,
        "meta_ephemeris_type": 0,
        "meta_classification_type": "U",
        "meta_norad_cat_id": 39155,
        "meta_element_set_no": 999,
        "meta_rev_at_epoch": 9846,
        "meta_bstar": 0,
        "meta_mean_motion_dot": -2e-07,
        "meta_mean_motion_ddot": 0,
        "tle_line1": "1 39155U 13019A   25354.12239863 -.00000020  00000+0  00000+0 0  9991",
        "tle_line2": "2 39155  65.3174  79.6189 0024876 230.2075 129.6042  2.13103220 98462"
      },
      "geometry": {
        "type": "Point",
        "coordinates": [
          -127.0339057893851,
          44.299647340592685
        ]
      }
    },
    {
      "type": "Feature",
      "properties": {
        "norad_id": 39620,
        "name": "COSMOS 2492 (754)",
        "group": "glo-ops",
        "lat": 16.443964973148482,
        "lon": 132.1830773457708,
        "alt_km": 19159.94388224954,
        "timestamp": "2025-12-21T16:47:54.999289+00:00",
        "meta_object_name": "COSMOS 2492 (754)",
        "meta_object_id": "2014-012A",
        "meta_epoch": "2025-12-21T00:28:06.027744",
        "meta_mean_motion": 2.13103414,
        "meta_eccentricity": 0.0014234,
        "meta_inclination": 65.403,
        "meta_ra_of_asc_node": 319.9894,
        "meta_arg_of_pericenter": 312.8453,
        "meta_mean_anomaly": 47.0277,
        "meta_ephemeris_type": 0,
        "meta_classification_type": "U",
        "meta_norad_cat_id": 39620,
        "meta_element_set_no": 999,
        "meta_rev_at_epoch": 9144,
        "meta_bstar": 0,
        "meta_mean_motion_dot": -4.8e-07,
        "meta_mean_motion_ddot": 0,
        "tle_line1": "1 39620U 14012A   25355.01951421 -.00000048  00000+0  00000+0 0  9992",
        "tle_line2": "2 39620  65.4030 319.9894 0014234 312.8453  47.0277  2.13103414 91447"
      },
      "geometry": {
        "type": "Point",
        "coordinates": [
          132.1830773457708,
          16.443964973148482
        ]
      }
    },
    {
      "type": "Feature",
      "properties": {
        "norad_id": 40001,
        "name": "COSMOS 2500 (755)",
        "group": "glo-ops",
        "lat": 26.97554864682018,
        "lon": -26.774098298878158,
        "alt_km": 19145.964349123235,
        "timestamp": "2025-12-21T16:47:54.999300+00:00",
        "meta_object_name": "COSMOS 2500 (755)",
        "meta_object_id": "2014-032A",
        "meta_epoch": "2025-12-21T04:35:55.026240",
        "meta_mean_motion": 2.13106227,
        "meta_eccentricity": 0.000773,
        "meta_inclination": 65.3386,
        "meta_ra_of_asc_node": 319.7453,
        "meta_arg_of_pericenter": 219.3736,
        "meta_mean_anomaly": 140.5635,
        "meta_ephemeris_type": 0,
        "meta_classification_type": "U",
        "meta_norad_cat_id": 40001,
        "meta_element_set_no": 999,
        "meta_rev_at_epoch": 8966,
        "meta_bstar": 0,
        "meta_mean_motion_dot": -4.7e-07,
        "meta_mean_motion_ddot": 0,
        "tle_line1": "1 40001U 14032A   25355.19160910 -.00000047  00000+0  00000+0 0  9992",
        "tle_line2": "2 40001  65.3386 319.7453 0007730 219.3736 140.5635  2.13106227 89665"
      },
      "geometry": {
        "type": "Point",
        "coordinates": [
          -26.774098298878158,
          26.97554864682018
        ]
      }
    },
    {
      "type": "Feature",
      "properties": {
        "norad_id": 40315,
        "name": "COSMOS 2501 (702K)",
        "group": "glo-ops",
        "lat": -9.426995318789146,
        "lon": 21.249962538572234,
        "alt_km": 19081.80340526235,
        "timestamp": "2025-12-21T16:47:54.999312+00:00",
        "meta_object_name": "COSMOS 2501 (702K)",
        "meta_object_id": "2014-075A",
        "meta_epoch": "2025-12-19T02:31:27.452640",
        "meta_mean_motion": 2.13101513,
        "meta_eccentricity": 0.0020099,
        "meta_inclination": 63.6146,
        "meta_ra_of_asc_node": 196.6046,
        "meta_arg_of_pericenter": 204.1838,
        "meta_mean_anomaly": 155.7988,
        "meta_ephemeris_type": 0,
        "meta_classification_type": "U",
        "meta_norad_cat_id": 40315,
        "meta_element_set_no": 999,
        "meta_rev_at_epoch": 8601,
        "meta_bstar": 0,
        "meta_mean_motion_dot": 1.06e-06,
        "meta_mean_motion_ddot": 0,
        "tle_line1": "1 40315U 14075A   25353.10517885  .00000106  00000+0  00000+0 0  9998",
        "tle_line2": "2 40315  63.6146 196.6046 0020099 204.1838 155.7988  2.13101513 86014"
      },
      "geometry": {
        "type": "Point",
        "coordinates": [
          21.249962538572234,
          -9.426995318789146
        ]
      }
    }
  ]
}